NORAD_CAT_ID,OBJECT_NAME,OBJECT_TYPE,EPOCH,MEAN_MOTION,ECCENTRICITY,INCLINATION,RA_OF_ASC_NODE,ARG_OF_PERICENTER,MEAN_ANOMALY,BSTAR,MEAN_MOTION_DOT,MEAN_MOTION_DDOT,TLE_LINE0,TLE_LINE1,TLE_LINE2,SEMIMAJOR_AXIS,PERIOD,APOGEE,PERIGEE,DECAYED
52118.0,STARLINK-3743,PAYLOAD,2022-06-24 14:00:01,15.08812553,0.0001453999999999,53.2163,37.924,59.1065,259.5486,0.0024356,0.00038658,0.0,0 STARLINK-3743,1 52118U 22029AG  22175.58334491  .00038658  00000-0  24356-2 0  9998,2 52118  53.2163  37.9240 0001454  59.1065 259.5486 15.08812553 16356,6917.964,95.439,540.835,538.823,0.0
52118.0,STARLINK-3743,PAYLOAD,2022-06-24 22:00:01,15.08828049,0.0001626,53.2161,36.4296,52.9381,277.3569,2.0995e-05,4.6e-07,0.0,0 STARLINK-3743,1 52118U 22029AG  22175.91668981  .00000046  00000-0  20995-4 0  9996,2 52118  53.2161  36.4296 0001626  52.9381 277.3569 15.08828049  1308,6917.917,95.438,540.9069999999998,538.6569999999998,0.0
52118.0,STARLINK-3743,PAYLOAD,2022-06-25 06:00:00,15.08850246,0.0001567,53.2156,34.9325,52.7732,289.0336,-0.0020462,-0.00032715,0.0,0 STARLINK-3743,1 52118U 22029AG  22176.25001157 -.00032715  00000-0 -20462-2 0  9997,2 52118  53.2156  34.9325 0001567  52.7732 289.0336 15.08850246 16469,6917.849,95.437,540.798,538.63,0.0
52118.0,STARLINK-3743,PAYLOAD,2022-06-25 14:00:01,15.08832145,0.0001495,53.2159,33.4352,60.7192,292.6858,0.0021692,0.00034396,0.0,0 STARLINK-3743,1 52118U 22029AG  22176.58334491  .00034396  00000-0  21692-2 0  9994,2 52118  53.2159  33.4352 0001495  60.7192 292.6858 15.08832145  1309,6917.904,95.438,540.804,538.735,0.0
52118.0,STARLINK-3743,PAYLOAD,2022-06-25 20:00:01,15.08854698,0.000161,53.2156,32.3144,55.1298,216.9752,-0.00069612,-0.00011354,0.0,0 STARLINK-3743,1 52118U 22029AG  22176.83334491 -.00011354  00000-0 -69612-3 0  9998,2 52118  53.2156  32.3144 0001610  55.1298 216.9752 15.08854698 16548,6917.835,95.437,540.814,538.587,0.0
52118.0,STARLINK-3743,PAYLOAD,2022-06-25 22:00:00,15.08846714,0.0001659,53.2157,31.9406,53.7402,311.2688,0.00045605,6.979e-05,0.0,0 STARLINK-3743,1 52118U 22029AG  22176.91667824  .00006979  00000-0  45605-3 0  9997,2 52118  53.2157  31.9406 0001659  53.7402 311.2688 15.08846714  1304,6917.86,95.437,540.873,538.577,0.0
52118.0,STARLINK-3743,PAYLOAD,2022-06-26 14:00:01,15.08834737,0.0001436,53.2157,28.9469,58.3141,329.9658,0.0020609,0.00032659,0.0,0 STARLINK-3743,1 52118U 22029AG  22177.58335648  .00032659  00000-0  20609-2 0  9997,2 52118  53.2157  28.9469 0001436  58.3141 329.9658 15.08834737  1308,6917.896,95.438,540.755,538.768,0.0
52118.0,STARLINK-3743,PAYLOAD,2022-06-26 22:00:00,15.08842109,0.000157,53.2155,27.4513,49.6605,350.1591,-0.0017329,-0.00027763,0.0,0 STARLINK-3743,1 52118U 22029AG  22177.91667824 -.00027763  00000-0 -17329-2 0  9995,2 52118  53.2155  27.4513 0001570  49.6605 350.1591 15.08842109  1301,6917.874,95.437,540.825,538.653,0.0
52118.0,STARLINK-3743,PAYLOAD,2022-06-27 06:00:00,15.08841447,0.0001462,53.2154,25.9538,48.4766,2.9254,-0.0016574,-0.0002657,0.0,0 STARLINK-3743,1 52118U 22029AG  22178.25001157 -.00026570  00000-0 -16574-2 0  9990,2 52118  53.2154  25.9538 0001462  48.4766   2.9254 15.08841447 16763,6917.876,95.437,540.752,538.73,0.0
52118.0,STARLINK-3743,PAYLOAD,2022-06-27 14:00:01,15.0883199,0.000143,53.2157,24.4566,55.3525,7.6337,0.0014655,0.00023107,0.0,0 STARLINK-3743,1 52118U 22029AG  22178.58334491  .00023107  00000-0  14655-2 0  9995,2 52118  53.2157  24.4566 0001430  55.3525   7.6337 15.08831990  1306,6917.905,95.438,540.759,538.781,0.0
52118.0,STARLINK-3743,PAYLOAD,2022-06-27 22:00:00,15.08833727,0.0001629999999999,53.2157,22.962,48.8794,25.7045,0.0010271,0.00016093,0.0,0 STARLINK-3743,1 52118U 22029AG  22178.91667824  .00016093  00000-0  10271-2 0  9997,2 52118  53.2157  22.9620 0001630  48.8794  25.7045 15.08833727 16861,6917.9,95.438,540.8919999999998,538.637,0.0
52118.0,STARLINK-3743,PAYLOAD,2022-06-28 14:00:01,15.08825119,0.0001606,53.2161,19.9672,58.3097,39.4523,0.00078816,0.00012273,0.0,0 STARLINK-3743,1 52118U 22029AG  22179.58334491  .00012273  00000-0  78816-3 0  9998,2 52118  53.2161  19.9672 0001606  58.3097  39.4523 15.08825119 16964,6917.926,95.438,540.9019999999998,538.68,0.0
52118.0,STARLINK-3743,PAYLOAD,2022-06-28 22:00:00,15.0881731,0.0001764,53.216,18.4726,51.6518,57.6955,0.0014114,0.00022232,0.0,0 STARLINK-3743,1 52118U 22029AG  22179.91667824  .00022232  00000-0  14114-2 0  9990,2 52118  53.2160  18.4726 0001764  51.6518  57.6955 15.08817310  1303,6917.95,95.439,541.035,538.594,0.0
52118.0,STARLINK-3743,PAYLOAD,2022-06-29 14:00:01,15.08842798,0.000164,53.2164,15.4779,59.3561,73.1514,0.00027817,4.142e-05,0.0,0 STARLINK-3743,1 52118U 22029AG  22180.58334491  .00004142  00000-0  27817-3 0  9991,2 52118  53.2164  15.4779 0001640  59.3561  73.1514 15.08842798 17116,6917.871999999999,95.437,540.871,538.602,0.0
52118.0,STARLINK-3743,PAYLOAD,2022-06-29 22:00:00,15.08827378,0.0001778,53.2163,13.9832,52.3208,91.7912,0.0017884,0.00028279,0.0,0 STARLINK-3743,1 52118U 22029AG  22180.91667824  .00028279  00000-0  17884-2 0  9996,2 52118  53.2163  13.9832 0001778  52.3208  91.7912 15.08827378  1300,6917.919,95.438,541.014,538.554,0.0
52118.0,STARLINK-3743,PAYLOAD,2022-06-30 14:00:01,15.08858099,0.0001621,53.2166,10.9887,60.6948,106.6082,-0.00016524,-2.918e-05,0.0,0 STARLINK-3743,1 52118U 22029AG  22181.58334491 -.00002918  00000-0 -16524-3 0  9996,2 52118  53.2166  10.9887 0001621  60.6948 106.6082 15.08858099  1308,6917.825,95.436,540.811,538.569,0.0
52118.0,STARLINK-3743,PAYLOAD,2022-06-30 22:00:00,15.08846653,0.0001712,53.2164,9.4938,52.4426,126.4794,-0.00065956,-0.00010772,0.0,0 STARLINK-3743,1 52118U 22029AG  22181.91667824 -.00010772  00000-0 -65956-3 0  9992,2 52118  53.2164   9.4938 0001712  52.4426 126.4794 15.08846653  1300,6917.86,95.437,540.909,538.5409999999998,0.0
52118.0,STARLINK-3743,PAYLOAD,2022-07-01 14:00:01,15.08844032,0.0001506,53.2165,6.4996,60.3478,141.7538,-0.00063119,-0.0001032,0.0,0 STARLINK-3743,1 52118U 22029AG  22182.58334491 -.00010320  00000-0 -63119-3 0  9995,2 52118  53.2165   6.4996 0001506  60.3478 141.7538 15.08844032  1303,6917.868,95.437,540.775,538.691,0.0
52118.0,STARLINK-3743,PAYLOAD,2022-07-01 22:00:00,15.08815319,0.0001645,53.2161,5.0046,52.4092,161.2933,0.0024251,0.00038493,0.0,0 STARLINK-3743,1 52118U 22029AG  22182.91667824  .00038493  00000-0  24251-2 0  9993,2 52118  53.2161   5.0046 0001645  52.4092 161.2933 15.08815319  1300,6917.956,95.439,540.9590000000002,538.683,0.0
52118.0,STARLINK-3743,PAYLOAD,2022-07-02 06:00:00,15.08839586,0.0001493,53.216,3.5066,57.6962,167.5925,-0.0002895,-4.892e-05,0.0,0 STARLINK-3743,1 52118U 22029AG  22183.25001157 -.00004892  00000-0 -28950-3 0  9991,2 52118  53.2160   3.5066 0001493  57.6962 167.5925 15.08839586 17510,6917.882,95.438,540.779,538.714,0.0
52118.0,STARLINK-3743,PAYLOAD,2022-07-02 14:00:01,15.08857369,0.0001512,53.2161,2.0105,61.6369,175.2411,-0.0008367,-0.00013586,0.0,0 STARLINK-3743,1 52118U 22029AG  22183.58334491 -.00013586  00000-0 -83670-3 0  9997,2 52118  53.2161   2.0105 0001512  61.6369 175.2411 15.08857369  1302,6917.8269999999975,95.436,540.738,538.646,0.0
52118.0,STARLINK-3743,PAYLOAD,2022-07-02 22:00:00,15.08831309,0.0001631,53.2158,0.5156,52.8682,195.6308,0.002966,0.00047221,0.0,0 STARLINK-3743,1 52118U 22029AG  22183.91667824  .00047221  00000-0  29660-2 0  9992,2 52118  53.2158   0.5156 0001631  52.8682 195.6308 15.08831309 17617,6917.906999999997,95.438,540.9,538.644,0.0
52118.0,STARLINK-3743,PAYLOAD,2022-07-03 14:00:01,15.08861027,0.0001411,53.2158,357.5213,58.7678,212.9426,-0.0023346,-0.00037272,0.0,0 STARLINK-3743,1 52118U 22029AG  22184.58334491 -.00037272  00000-0 -23346-2 0  9999,2 52118  53.2158 357.5213 0001411  58.7678 212.9426 15.08861027 17717,6917.816,95.436,540.6569999999998,538.705,0.0
52118.0,STARLINK-3743,PAYLOAD,2022-07-03 22:00:00,15.08801162,0.0001509,53.2157,356.0263,48.6082,234.7109,0.0020937,0.00033155,0.0,0 STARLINK-3743,1 52118U 22029AG  22184.91667824  .00033155  00000-0  20937-2 0  9992,2 52118  53.2157 356.0263 0001509  48.6082 234.7109 15.08801162  1302,6917.999,95.44,540.908,538.82,0.0
52118.0,STARLINK-3743,PAYLOAD,2022-07-04 14:00:01,15.08839872,0.0001406999999999,53.2159,353.0322,55.4446,251.0045,-0.0011721,-0.00018893,0.0,0 STARLINK-3743,1 52118U 22029AG  22185.58334491 -.00018893  00000-0 -11721-2 0  9992,2 52118  53.2159 353.0322 0001407  55.4446 251.0045 15.08839872 17862,6917.880999999999,95.438,540.719,538.7719999999998,0.0
52118.0,STARLINK-3743,PAYLOAD,2022-07-04 22:00:00,15.08811665,0.0001545,53.2158,351.5372,47.2854,270.7575,0.0031351,0.00049922,0.0,0 STARLINK-3743,1 52118U 22029AG  22185.91667824  .00049922  00000-0  31351-2 0  9994,2 52118  53.2158 351.5372 0001545  47.2854 270.7575 15.08811665  1302,6917.967,95.439,540.901,538.763,0.0
52118.0,STARLINK-3743,PAYLOAD,2022-07-05 14:00:01,15.08870713,0.0001445,53.2162,348.5432,52.9931,288.2219,-0.0029004,-0.00046191,0.0,0 STARLINK-3743,1 52118U 22029AG  22186.58334491 -.00046191  00000-0 -29004-2 0  9998,2 52118  53.2162 348.5432 0001445  52.9931 288.2219 15.08870713  1306,6917.7869999999975,95.436,540.651,538.6519999999998,0.0
52118.0,STARLINK-3743,PAYLOAD,2022-07-05 22:00:00,15.08812926,0.0001533,53.216,347.0479,44.4226,308.4102,0.0021118,0.00033456,0.0,0 STARLINK-3743,1 52118U 22029AG  22186.91667824  .00033456  00000-0  21118-2 0  9990,2 52118  53.2160 347.0479 0001533  44.4226 308.4102 15.08812926  1308,6917.9630000000025,95.439,540.889,538.768,0.0
52118.0,STARLINK-3743,PAYLOAD,2022-07-06 14:00:01,15.08852123,0.0001447,53.2165,344.0542,50.2748,325.7126,-0.0015808,-0.00025367,0.0,0 STARLINK-3743,1 52118U 22029AG  22187.58334491 -.00025367  00000-0 -15808-2 0  9998,2 52118  53.2165 344.0542 0001447  50.2748 325.7126 15.08852123 18173,6917.843000000003,95.437,540.7090000000002,538.707,0.0
